ORBCOMM-X               
1 21576U 91050C   25035.19120468  .00000720  00000+0  22766-3 0  9996
2 21576  98.3613 104.4158 0002951 212.7097 147.3911 14.43071742762937
ORBCOMM FM01            
1 23545U 95017A   25035.44975212  .00012182  00000+0  13539-2 0  9996
2 23545  69.9649  44.5254 0004042 230.0869 129.9929 14.87326785592756
ORBCOMM FM02            
1 23546U 95017B   25035.51281912  .00010845  00000+0  11984-2 0  9998
2 23546  69.9660  64.0453 0004459 214.2675 145.8191 14.87605121592403
ORBCOMM FM08            
1 25112U 97084A   25035.13672970  .00003067  00000+0  91109-3 0  9997
2 25112  45.0135 286.2260 0006167 302.5905  57.4350 14.45001473422125
ORBCOMM FM10            
1 25113U 97084B   25035.09878628  .00002924  00000+0  87419-3 0  9991
2 25113  45.0149 288.5618 0004052 268.5625  91.4762 14.44810907597266
ORBCOMM FM11            
1 25114U 97084C   25035.08080614  .00002674  00000+0  80679-3 0  9994
2 25114  45.0133 289.0454 0004937 269.1940  90.8345 14.44581792422223
ORBCOMM FM12            
1 25115U 97084D   25035.04506592  .00002953  00000+0  88654-3 0  9990
2 25115  45.0142 288.9790 0003868 268.9939  91.0469 14.44587976422019
ORBCOMM FM09            
1 25116U 97084E   25035.06684997  .00002842  00000+0  85643-3 0  9991
2 25116  45.0146 289.6854 0005055 252.0430 107.9870 14.44488322422224
